0 COSMOS 1459
1 14057U 83042A   13281.81104818  .00000037  00000-0  22045-4 0  3362
2 14057 082.9767 007.4614 0049653 190.6598 291.0511 13.76405753528392
0 COSMOS 1459
1 14057U 83042A   13283.17718381  .00000040  00000-0  24857-4 0  3377
2 14057 082.9767 006.4517 0049763 186.8220 220.3503 13.76405866528586
0 COSMOS 1459
1 14057U 83042A   13284.18910373  .00000059  00000-0  44178-4 0  3383
2 14057 082.9767 005.7038 0049828 183.9931 194.4726 13.76405941528723
0 COSMOS 1459
1 14057U 83042A   13286.53652333  .00000070  00000-0  55383-4 0  3409
2 14057 082.9765 003.9689 0049975 177.5424 305.9626 13.76405782529049
0 COSMOS 1459
1 14057U 83042A   13287.77562954  .00000082  00000-0  67430-4 0  3415
2 14057 082.9762 003.0532 0050048 174.0991 325.7848 13.76405975529217
0 COSMOS 1459
1 14057U 83042A   13288.78706319  .00000078  00000-0  63177-4 0  3422
2 14057 082.9759 002.3056 0050117 171.2794 297.4897 13.76406023529352
0 COSMOS 1459
1 14057U 83042A   13290.14988668  .00000077  00000-0  62031-4 0  3432
2 14057 082.9756 001.2985 0050203 167.4902 210.3392 13.76406287529549
0 COSMOS 1459
1 14057U 83042A   13291.17532216  .00000071  00000-0  56193-4 0  3447
2 14057 082.9754 000.5405 0050265 164.6626 251.3938 13.76406512529683
0 COSMOS 1459
1 14057U 83042A   13292.19430584  .00000067  00000-0  52170-4 0  3452
2 14057 082.9752 359.7873 0050310 161.8796 260.4533 13.76406705529829
0 COSMOS 1459
1 14057U 83042A   13293.21017181  .00000060  00000-0  44552-4 0  3469
2 14057 082.9752 359.0363 0050353 159.1031 254.0672 13.76406906529966
0 COSMOS 1459
1 14057U 83042A   13294.53187309  .00000065  00000-0  50209-4 0  3477
2 14057 082.9751 358.0593 0050440 155.4554 323.1320 13.76407137530142
0 COSMOS 1459
1 14057U 83042A   13295.54375639  .00000065  00000-0  50006-4 0  3480
2 14057 082.9752 357.3113 0050504 152.6688 297.0348 13.76407236530285
